NORAD_CAT_ID,OBJECT_NAME,OBJECT_TYPE,EPOCH,MEAN_MOTION,ECCENTRICITY,INCLINATION,RA_OF_ASC_NODE,ARG_OF_PERICENTER,MEAN_ANOMALY,BSTAR,MEAN_MOTION_DOT,MEAN_MOTION_DDOT,TLE_LINE0,TLE_LINE1,TLE_LINE2,SEMIMAJOR_AXIS,PERIOD,APOGEE,PERIGEE,DECAYED
53830.0,STARLINK-4761,PAYLOAD,2024-04-27 11:24:47,15.08852906,0.0001387,53.2143,122.0345,90.2916,269.8235,0.00056495,8.718e-05,0.0,0 STARLINK-4761,1 53830U 22114N   24118.47554878  .00008718  00000-0  56495-3 0  9999,2 53830  53.2143 122.0345 0001387  90.2916 269.8235 15.08852906 89996,6917.841,95.437,540.665,538.746,0.0
53830.0,STARLINK-4761,PAYLOAD,2024-04-27 17:46:20,15.08845267,0.0001295,53.2147,120.8458,85.7141,274.3999,0.00031001,4.65e-05,0.0,0 STARLINK-4761,1 53830U 22114N   24118.74051055  .00004650  00000-0  31001-3 0  9995,2 53830  53.2147 120.8458 0001295  85.7141 274.3999 15.08845267 90035,6917.864,95.437,540.625,538.833,0.0
53830.0,STARLINK-4761,PAYLOAD,2024-04-28 04:54:02,15.08838422,0.0001406,53.2149,118.7641,87.108,273.0073,6.8397e-05,8.01e-06,0.0,0 STARLINK-4761,1 53830U 22114N   24119.20419364  .00000801  00000-0  68397-4 0  9991,2 53830  53.2149 118.7641 0001406  87.1080 273.0073 15.08838422 89569,6917.885,95.438,540.723,538.778,0.0
53830.0,STARLINK-4761,PAYLOAD,2024-04-28 09:40:11,15.08843418,0.0001444,53.2151,117.8716,96.6144,263.5013,0.00018854,2.714e-05,0.0,0 STARLINK-4761,1 53830U 22114N   24119.40291197  .00002714  00000-0  18854-3 0  9992,2 53830  53.2151 117.8716 0001444  96.6144 263.5013 15.08843418 90137,6917.87,95.437,540.734,538.736,0.0
53830.0,STARLINK-4761,PAYLOAD,2024-04-29 09:30:58,15.08842615,0.0001447,53.2156,113.411,94.9462,265.1696,0.00013289,1.828e-05,0.0,0 STARLINK-4761,1 53830U 22114N   24120.39651308  .00001828  00000-0  13289-3 0  9998,2 53830  53.2156 113.4110 0001447  94.9462 265.1696 15.08842615 89747,6917.872,95.437,540.738,538.736,0.0
53830.0,STARLINK-4761,PAYLOAD,2024-04-29 22:14:03,15.08839285,0.0001451,53.2154,111.0323,95.5979,264.5179,7.6755e-05,9.34e-06,0.0,0 STARLINK-4761,1 53830U 22114N   24120.92643489  .00000934  00000-0  76755-4 0  9993,2 53830  53.2154 111.0323 0001451  95.5979 264.5179 15.08839285 90368,6917.883,95.438,540.751,538.744,0.0
53830.0,STARLINK-4761,PAYLOAD,2024-04-30 06:10:59,15.08837352,0.0001382,53.2156,109.5459,96.0569,264.058,0.00019325,2.789e-05,0.0,0 STARLINK-4761,1 53830U 22114N   24121.25763660  .00002789  00000-0  19325-3 0  9993,2 53830  53.2156 109.5459 0001382  96.0569 264.0580 15.08837352 89874,6917.888,95.438,540.71,538.797,0.0
53830.0,STARLINK-4761,PAYLOAD,2024-04-30 15:43:18,15.08839991,0.0001315,53.2153,107.7613,92.8826,267.2316,8.5074e-05,1.066e-05,0.0,0 STARLINK-4761,1 53830U 22114N   24121.65507479  .00001066  00000-0  85074-4 0  9993,2 53830  53.2153 107.7613 0001315  92.8826 267.2316 15.08839991 90470,6917.88,95.438,540.655,538.836,0.0
53830.0,STARLINK-4761,PAYLOAD,2024-05-01 06:01:46,15.08840454,0.0001392,53.2173,105.0866,97.642,262.473,0.00011742,1.581e-05,0.0,0 STARLINK-4761,1 53830U 22114N   24122.25123692  .00001581  00000-0  11742-3 0  9993,2 53830  53.2173 105.0866 0001392  97.6420 262.4730 15.08840454 90564,6917.879,95.438,540.707,538.781,0.0
53830.0,STARLINK-4761,PAYLOAD,2024-05-01 15:34:05,15.08840551,0.0001379,53.2173,103.3023,96.4787,263.6363,0.00010546,1.391e-05,0.0,0 STARLINK-4761,1 53830U 22114N   24122.64867665  .00001391  00000-0  10546-3 0  9991,2 53830  53.2173 103.3023 0001379  96.4787 263.6363 15.08840551 90088,6917.879,95.438,540.698,538.79,0.0
53830.0,STARLINK-4761,PAYLOAD,2024-05-01 21:55:38,15.08840324,0.0001363,53.2174,102.1129,99.6421,260.4725,0.00013608,1.878e-05,0.0,0 STARLINK-4761,1 53830U 22114N   24122.91363621  .00001878  00000-0  13608-3 0  9996,2 53830  53.2174 102.1129 0001363  99.6421 260.4725 15.08840324 90665,6917.879,95.438,540.687,538.801,0.0
53830.0,STARLINK-4761,PAYLOAD,2024-05-02 07:27:56,15.08843932,0.0001354,53.2171,100.3284,98.0384,262.0762,0.00011258,1.504e-05,0.0,0 STARLINK-4761,1 53830U 22114N   24123.31107438  .00001504  00000-0  11258-3 0  9998,2 53830  53.2171 100.3284 0001354  98.0384 262.0762 15.08843932 90729,6917.868,95.437,540.67,538.797,0.0
53830.0,STARLINK-4761,PAYLOAD,2024-05-02 15:24:53,15.08837082,0.0001283,53.2168,98.8412,92.5894,267.5245,6.5807e-05,7.6e-06,0.0,0 STARLINK-4761,1 53830U 22114N   24123.64228013  .00000760  00000-0  65807-4 0  9990,2 53830  53.2168  98.8412 0001283  92.5894 267.5245 15.08837082 90236,6917.889,95.438,540.642,538.867,0.0
53830.0,STARLINK-4761,PAYLOAD,2024-05-03 07:18:44,15.08841374,0.0001379,53.2165,95.8672,91.5406,268.5744,4.1886e-05,3.79e-06,0.0,0 STARLINK-4761,1 53830U 22114N   24124.30467891  .00000379  00000-0  41886-4 0  9990,2 53830  53.2165  95.8672 0001379  91.5406 268.5744 15.08841374 90876,6917.876,95.437,540.695,538.787,0.0
53830.0,STARLINK-4761,PAYLOAD,2024-05-03 21:37:13,15.08828608,0.0001852,53.2152,93.191,84.6057,275.5147,-9.102e-06,-4.33e-06,0.0,0 STARLINK-4761,1 53830U 22114N   24124.90085195 -.00000433  00000-0 -91020-5 0  9998,2 53830  53.2152  93.1910 0001852  84.6057 275.5147 15.08828608 90420,6917.915,95.438,541.061,538.499,0.0
53830.0,STARLINK-4761,PAYLOAD,2024-05-04 07:09:32,15.08838175,0.0001412,53.2173,91.4059,87.6551,272.4603,5.6078e-05,6.05e-06,0.0,0 STARLINK-4761,1 53830U 22114N   24125.29828910  .00000605  00000-0  56078-4 0  9993,2 53830  53.2173  91.4059 0001412  87.6551 272.4603 15.08838175 90481,6917.886,95.438,540.728,538.774,0.0
53830.0,STARLINK-4761,PAYLOAD,2024-05-05 03:49:32,15.08850441,0.0001396,53.2176,87.5399,88.354,271.7612,0.00019839,2.872e-05,0.0,0 STARLINK-4761,1 53830U 22114N   24126.15939820  .00002872  00000-0  19839-3 0  9993,2 53830  53.2176  87.5399 0001396  88.3540 271.7612 15.08850441 90611,6917.848,95.437,540.679,538.748,0.0
53830.0,STARLINK-4761,PAYLOAD,2024-05-05 07:00:18,15.0885471,0.0001424,53.2173,86.9456,87.5338,272.5818,0.00022115,3.235e-05,0.0,0 STARLINK-4761,1 53830U 22114N   24126.29187517  .00003235  00000-0  22115-3 0  9991,2 53830  53.2173  86.9456 0001424  87.5338 272.5818 15.08854710 91175,6917.835,95.437,540.686,538.715,0.0
53830.0,STARLINK-4761,PAYLOAD,2024-05-06 03:40:18,15.08840737,0.0001205,53.218,83.0765,105.9905,254.122,0.00042279,6.447e-05,0.0,0 STARLINK-4761,1 53830U 22114N   24127.15299760  .00006447  00000-0  42279-3 0  9992,2 53830  53.2180  83.0765 0001205 105.9905 254.1220 15.08840737 90767,6917.878,95.438,540.577,538.91,0.0
53830.0,STARLINK-4761,PAYLOAD,2024-05-06 06:51:05,15.08845282,0.0001256,53.2184,82.4817,111.35,248.7626,0.00037218,5.641e-05,0.0,0 STARLINK-4761,1 53830U 22114N   24127.28547630  .00005641  00000-0  37218-3 0  9990,2 53830  53.2184  82.4817 0001256 111.3500 248.7626 15.08845282 91322,6917.864,95.437,540.598,538.86,0.0
53830.0,STARLINK-4761,PAYLOAD,2024-05-07 13:03:24,15.08845146,0.0001346,53.2179,76.8313,98.4464,261.6681,-8.0444e-05,-1.568e-05,0.0,0 STARLINK-4761,1 53830U 22114N   24128.54403829 -.00001568  00000-0 -80444-4 0  9997,2 53830  53.2179  76.8313 0001346  98.4464 261.6681 15.08845146 90972,6917.865,95.437,540.661,538.799,0.0
53830.0,STARLINK-4761,PAYLOAD,2024-05-08 12:54:12,15.08843318,0.0001341,53.2186,72.3755,100.6542,259.4601,-6.1433e-05,-1.266e-05,0.0,0 STARLINK-4761,1 53830U 22114N   24129.53763909 -.00001266  00000-0 -61433-4 0  9997,2 53830  53.2186  72.3755 0001341 100.6542 259.4601 15.08843318 91662,6917.87,95.437,540.663,538.808,0.0
53830.0,STARLINK-4761,PAYLOAD,2024-05-09 03:12:40,15.08843884,0.0001216,53.2178,69.6999,99.0843,261.0287,3.0227e-05,1.93e-06,0.0,0 STARLINK-4761,1 53830U 22114N   24130.13379835  .00000193  00000-0  30227-4 0  9999,2 53830  53.2178  69.6999 0001216  99.0843 261.0287 15.08843884 91216,6917.869,95.437,540.575,538.892,0.0
53830.0,STARLINK-4761,PAYLOAD,2024-05-09 12:44:58,15.0884723,0.0001172,53.2179,67.9159,91.7362,268.3765,5.8799e-05,6.48e-06,0.0,0 STARLINK-4761,1 53830U 22114N   24130.53123622  .00000648  00000-0  58799-4 0  9993,2 53830  53.2179  67.9159 0001172  91.7362 268.3765 15.08847230 91818,6917.858,95.437,540.534,538.913,0.0
53830.0,STARLINK-4761,PAYLOAD,2024-05-10 03:03:27,15.08840898,0.0001359,53.2191,65.2387,86.0427,274.0721,9.8345e-05,1.278e-05,0.0,0 STARLINK-4761,1 53830U 22114N   24131.12740388  .00001278  00000-0  98345-4 0  9994,2 53830  53.2191  65.2387 0001359  86.0427 274.0721 15.08840898 91361,6917.878,95.437,540.683,538.803,0.0
53830.0,STARLINK-4761,PAYLOAD,2024-05-10 12:35:46,15.08844021,0.0001402,53.2195,63.4545,82.9782,277.1369,0.0001207,1.634e-05,0.0,0 STARLINK-4761,1 53830U 22114N   24131.52484249  .00001634  00000-0  12070-3 0  9995,2 53830  53.2195  63.4545 0001402  82.9782 277.1369 15.08844021 91969,6917.868,95.437,540.703,538.763,0.0
53830.0,STARLINK-4761,PAYLOAD,2024-05-10 18:57:19,15.08839677,0.0001311,53.2185,62.2675,86.6061,273.5081,0.00012099,1.638e-05,0.0,0 STARLINK-4761,1 53830U 22114N   24131.78980567  .00001638  00000-0  12099-3 0  9992,2 53830  53.2185  62.2675 0001311  86.6061 273.5081 15.08839677 92007,6917.881,95.438,540.653,538.839,0.0
53830.0,STARLINK-4761,PAYLOAD,2024-05-11 04:29:34,15.08890006,0.0001128,53.2176,60.4805,117.3815,242.7292,0.00041376,6.312e-05,0.0,0 STARLINK-4761,1 53830U 22114N   24132.18720243  .00006312  00000-0  41376-3 0  9994,2 53830  53.2176  60.4805 0001128 117.3815 242.7292 15.08890006 91528,6917.728,95.434,540.373,538.812,0.0
53830.0,STARLINK-4761,PAYLOAD,2024-05-11 18:48:02,15.08895381,0.0003645,53.2185,57.808,86.6007,273.5402,0.00074105,0.00011544,0.0,0 STARLINK-4761,1 53830U 22114N   24132.78336699  .00011544  00000-0  74105-3 0  9997,2 53830  53.2185  57.8080 0003645  86.6007 273.5402 15.08895381 91616,6917.711,95.434,542.098,537.055,0.0
53830.0,STARLINK-4761,PAYLOAD,2024-05-12 05:55:50,15.08756429,0.0001441,53.2159,55.7267,93.2769,266.8388,-0.0014943,-0.00023937,0.0,0 STARLINK-4761,1 53830U 22114N   24133.24711735 -.00023937  00000-0 -14943-2 0  9991,2 53830  53.2159  55.7267 0001441  93.2769 266.8388 15.08756429 91686,6918.136,95.443,540.998,539.004,0.0
